UNKNOWN                 
1 82729U          26034.30198165  .00000491  00000+0  17478-2 0  9998
2 82729  67.9680  55.0044 0836970 334.6781  21.5304 12.17839691541607
UNKNOWN                 
1 82739U          26060.94404269  .00000501  00000+0  44305-3 0  9995
2 82739  99.0936 219.5999 0171805  81.8902  71.2095 13.82966322617056
UNKNOWN                 
1 82741U          26060.93588793  .00001943  00000+0  21164-2 0  9990
2 82741 102.8432 126.8873 0199546  90.9398 271.4601 13.66448717607899
UNKNOWN                 
1 82783U          26061.89169903 -.00000287  00000+0 -85822-3 0  9994
2 82783  90.3436  40.7229 0020071 260.1678  99.7184 13.09082179514849
UNKNOWN                 
1 82798U          26059.48190512  .00001920  00000+0  83774-3 0  9999
2 82798  82.9509 129.4832 0027126 292.8683  82.6977 14.23311743323437
UNKNOWN                 
1 82820U          26061.28797004  .00004522  00000+0  15628-2 0  9998
2 82820  99.7920 237.6479 0049538 149.0161 211.3959 14.35666519637043
UNKNOWN                 
1 82829U          26047.73549546  .00000186  00000+0  62868-2 0  9997
2 82829  65.1038 312.4892 0178136 322.2986  65.4853 11.29162853493534
UNKNOWN                 
1 82854U          26061.55589919  .00002655  00000+0  20649-2 0  9993
2 82854  82.6911   1.9848 0132010  54.2109 307.1240 13.88119793618871
UNKNOWN                 
1 82873U          26061.94874245  .00004042  00000+0  17315-2 0  9994
2 82873  99.9956 332.1271 0040255  58.6288 301.8816 14.25089956632657
UNKNOWN                 
1 82875U          26059.67098798  .00001137  00000+0  30260-3 0  9991
2 82875  98.6848  46.1356 0379432  59.5304 304.2774 14.15279139555491
UNKNOWN                 
1 82893U          26062.28635832  .00010332  00000+0  37568-2 0  9992
2 82893  98.9594 185.0551 0027778 170.4535 189.7181 14.33183752435506
UNKNOWN                 
1 82912U          26061.17891084  .00002228  00000+0  93941-3 0  9997
2 82912  65.8389 351.1030 0771414 232.8891 119.9245 13.28374155589870
UNKNOWN                 
1 82961U          26061.90500751  .00017895  00000+0  24892-1 0  9993
2 82961  99.8213 217.2970 0428039 178.4642 181.7907 13.25842787566328
UNKNOWN                 
1 82965U          26059.07102743  .00000994  00000+0  13913-2 0  9996
2 82965 100.1087 146.0991 0003131 186.2892 173.8208 13.60198576534965
UNKNOWN                 
1 83903U          26062.53992028 -.00000394  00000+0  00000+0 0  9992
2 83903   5.9857 289.9080 0122199 253.6693 298.3680  0.99115449 44469
UNKNOWN                 
1 83934U          26061.87705515 -.00000063  00000+0  00000+0 0  9998
2 83934   5.6032 296.9861 0224494 275.7624 284.5822  1.02662006 46109
UNKNOWN                 
1 84006U          26062.56444876  .00000005  00000+0  00000+0 0  9991
2 84006  22.3801 160.9968 6164362  89.0442 336.2178  2.16232293 85979
