[{"OBJECT_NAME":"UNKNOWN","OBJECT_ID":"","EPOCH":"2026-02-03T07:14:51.214560","MEAN_MOTION":12.17839691,"ECCENTRICITY":0.083697,"INCLINATION":67.968,"RA_OF_ASC_NODE":55.0044,"ARG_OF_PERICENTER":334.6781,"MEAN_ANOMALY":21.5304,"EPHEMERIS_TYPE":0,"CLASSIFICATION_TYPE":"U","NORAD_CAT_ID":82729,"ELEMENT_SET_NO":999,"REV_AT_EPOCH":54160,"BSTAR":0.0017478,"MEAN_MOTION_DOT":4.91e-6,"MEAN_MOTION_DDOT":0},{"OBJECT_NAME":"UNKNOWN","OBJECT_ID":"","EPOCH":"2026-03-01T22:39:25.288416","MEAN_MOTION":13.82966322,"ECCENTRICITY":0.0171805,"INCLINATION":99.0936,"RA_OF_ASC_NODE":219.5999,"ARG_OF_PERICENTER":81.8902,"MEAN_ANOMALY":71.2095,"EPHEMERIS_TYPE":0,"CLASSIFICATION_TYPE":"U","NORAD_CAT_ID":82739,"ELEMENT_SET_NO":999,"REV_AT_EPOCH":61705,"BSTAR":0.00044305,"MEAN_MOTION_DOT":5.01e-6,"MEAN_MOTION_DDOT":0},{"OBJECT_NAME":"UNKNOWN","OBJECT_ID":"","EPOCH":"2026-03-01T22:27:40.717152","MEAN_MOTION":13.66448717,"ECCENTRICITY":0.0199546,"INCLINATION":102.8432,"RA_OF_ASC_NODE":126.8873,"ARG_OF_PERICENTER":90.9398,"MEAN_ANOMALY":271.4601,"EPHEMERIS_TYPE":0,"CLASSIFICATION_TYPE":"U","NORAD_CAT_ID":82741,"ELEMENT_SET_NO":999,"REV_AT_EPOCH":60789,"BSTAR":0.0021164,"MEAN_MOTION_DOT":1.943e-5,"MEAN_MOTION_DDOT":0},{"OBJECT_NAME":"UNKNOWN","OBJECT_ID":"","EPOCH":"2026-03-02T21:24:02.796192","MEAN_MOTION":13.09082179,"ECCENTRICITY":0.0020071,"INCLINATION":90.3436,"RA_OF_ASC_NODE":40.7229,"ARG_OF_PERICENTER":260.1678,"MEAN_ANOMALY":99.7184,"EPHEMERIS_TYPE":0,"CLASSIFICATION_TYPE":"U","NORAD_CAT_ID":82783,"ELEMENT_SET_NO":999,"REV_AT_EPOCH":51484,"BSTAR":-0.00085822,"MEAN_MOTION_DOT":-2.87e-6,"MEAN_MOTION_DDOT":0},{"OBJECT_NAME":"UNKNOWN","OBJECT_ID":"","EPOCH":"2026-02-28T11:33:56.602368","MEAN_MOTION":14.23311743,"ECCENTRICITY":0.0027126,"INCLINATION":82.9509,"RA_OF_ASC_NODE":129.4832,"ARG_OF_PERICENTER":292.8683,"MEAN_ANOMALY":82.6977,"EPHEMERIS_TYPE":0,"CLASSIFICATION_TYPE":"U","NORAD_CAT_ID":82798,"ELEMENT_SET_NO":999,"REV_AT_EPOCH":32343,"BSTAR":0.00083774,"MEAN_MOTION_DOT":1.92e-5,"MEAN_MOTION_DDOT":0},{"OBJECT_NAME":"UNKNOWN","OBJECT_ID":"","EPOCH":"2026-03-02T06:54:40.611456","MEAN_MOTION":14.35666519,"ECCENTRICITY":0.0049538,"INCLINATION":99.792,"RA_OF_ASC_NODE":237.6479,"ARG_OF_PERICENTER":149.0161,"MEAN_ANOMALY":211.3959,"EPHEMERIS_TYPE":0,"CLASSIFICATION_TYPE":"U","NORAD_CAT_ID":82820,"ELEMENT_SET_NO":999,"REV_AT_EPOCH":63704,"BSTAR":0.0015628,"MEAN_MOTION_DOT":4.522e-5,"MEAN_MOTION_DDOT":0},{"OBJECT_NAME":"UNKNOWN","OBJECT_ID":"","EPOCH":"2026-02-16T17:39:06.807744","MEAN_MOTION":11.29162853,"ECCENTRICITY":0.0178136,"INCLINATION":65.1038,"RA_OF_ASC_NODE":312.4892,"ARG_OF_PERICENTER":322.2986,"MEAN_ANOMALY":65.4853,"EPHEMERIS_TYPE":0,"CLASSIFICATION_TYPE":"U","NORAD_CAT_ID":82829,"ELEMENT_SET_NO":999,"REV_AT_EPOCH":49353,"BSTAR":0.0062868,"MEAN_MOTION_DOT":1.86e-6,"MEAN_MOTION_DDOT":0},{"OBJECT_NAME":"UNKNOWN","OBJECT_ID":"","EPOCH":"2026-03-02T13:20:29.690016","MEAN_MOTION":13.88119793,"ECCENTRICITY":0.013201,"INCLINATION":82.6911,"RA_OF_ASC_NODE":1.9848,"ARG_OF_PERICENTER":54.2109,"MEAN_ANOMALY":307.124,"EPHEMERIS_TYPE":0,"CLASSIFICATION_TYPE":"U","NORAD_CAT_ID":82854,"ELEMENT_SET_NO":999,"REV_AT_EPOCH":61887,"BSTAR":0.0020649,"MEAN_MOTION_DOT":2.655e-5,"MEAN_MOTION_DDOT":0},{"OBJECT_NAME":"UNKNOWN","OBJECT_ID":"","EPOCH":"2026-03-02T22:46:11.347680","MEAN_MOTION":14.25089956,"ECCENTRICITY":0.0040255,"INCLINATION":99.9956,"RA_OF_ASC_NODE":332.1271,"ARG_OF_PERICENTER":58.6288,"MEAN_ANOMALY":301.8816,"EPHEMERIS_TYPE":0,"CLASSIFICATION_TYPE":"U","NORAD_CAT_ID":82873,"ELEMENT_SET_NO":999,"REV_AT_EPOCH":63265,"BSTAR":0.0017315,"MEAN_MOTION_DOT":4.042e-5,"MEAN_MOTION_DDOT":0},{"OBJECT_NAME":"UNKNOWN","OBJECT_ID":"","EPOCH":"2026-02-28T16:06:13.361472","MEAN_MOTION":14.15279139,"ECCENTRICITY":0.0379432,"INCLINATION":98.6848,"RA_OF_ASC_NODE":46.1356,"ARG_OF_PERICENTER":59.5304,"MEAN_ANOMALY":304.2774,"EPHEMERIS_TYPE":0,"CLASSIFICATION_TYPE":"U","NORAD_CAT_ID":82875,"ELEMENT_SET_NO":999,"REV_AT_EPOCH":55549,"BSTAR":0.0003026,"MEAN_MOTION_DOT":1.137e-5,"MEAN_MOTION_DDOT":0},{"OBJECT_NAME":"UNKNOWN","OBJECT_ID":"","EPOCH":"2026-03-03T06:52:21.358848","MEAN_MOTION":14.33183752,"ECCENTRICITY":0.0027778,"INCLINATION":98.9594,"RA_OF_ASC_NODE":185.0551,"ARG_OF_PERICENTER":170.4535,"MEAN_ANOMALY":189.7181,"EPHEMERIS_TYPE":0,"CLASSIFICATION_TYPE":"U","NORAD_CAT_ID":82893,"ELEMENT_SET_NO":999,"REV_AT_EPOCH":43550,"BSTAR":0.0037568,"MEAN_MOTION_DOT":0.00010332,"MEAN_MOTION_DDOT":0},{"OBJECT_NAME":"UNKNOWN","OBJECT_ID":"","EPOCH":"2026-03-02T04:17:37.896576","MEAN_MOTION":13.28374155,"ECCENTRICITY":0.0771414,"INCLINATION":65.8389,"RA_OF_ASC_NODE":351.103,"ARG_OF_PERICENTER":232.8891,"MEAN_ANOMALY":119.9245,"EPHEMERIS_TYPE":0,"CLASSIFICATION_TYPE":"U","NORAD_CAT_ID":82912,"ELEMENT_SET_NO":999,"REV_AT_EPOCH":58987,"BSTAR":0.00093941,"MEAN_MOTION_DOT":2.228e-5,"MEAN_MOTION_DDOT":0},{"OBJECT_NAME":"UNKNOWN","OBJECT_ID":"","EPOCH":"2026-03-02T21:43:12.648864","MEAN_MOTION":13.25842787,"ECCENTRICITY":0.0428039,"INCLINATION":99.8213,"RA_OF_ASC_NODE":217.297,"ARG_OF_PERICENTER":178.4642,"MEAN_ANOMALY":181.7907,"EPHEMERIS_TYPE":0,"CLASSIFICATION_TYPE":"U","NORAD_CAT_ID":82961,"ELEMENT_SET_NO":999,"REV_AT_EPOCH":56632,"BSTAR":0.024892,"MEAN_MOTION_DOT":0.00017895,"MEAN_MOTION_DDOT":0},{"OBJECT_NAME":"UNKNOWN","OBJECT_ID":"","EPOCH":"2026-02-28T01:42:16.769952","MEAN_MOTION":13.60198576,"ECCENTRICITY":0.0003131,"INCLINATION":100.1087,"RA_OF_ASC_NODE":146.0991,"ARG_OF_PERICENTER":186.2892,"MEAN_ANOMALY":173.8208,"EPHEMERIS_TYPE":0,"CLASSIFICATION_TYPE":"U","NORAD_CAT_ID":82965,"ELEMENT_SET_NO":999,"REV_AT_EPOCH":53496,"BSTAR":0.0013913,"MEAN_MOTION_DOT":9.94e-6,"MEAN_MOTION_DDOT":0},{"OBJECT_NAME":"UNKNOWN","OBJECT_ID":"","EPOCH":"2026-03-03T12:57:29.112192","MEAN_MOTION":0.99115449,"ECCENTRICITY":0.0122199,"INCLINATION":5.9857,"RA_OF_ASC_NODE":289.908,"ARG_OF_PERICENTER":253.6693,"MEAN_ANOMALY":298.368,"EPHEMERIS_TYPE":0,"CLASSIFICATION_TYPE":"U","NORAD_CAT_ID":83903,"ELEMENT_SET_NO":999,"REV_AT_EPOCH":4446,"BSTAR":0,"MEAN_MOTION_DOT":-3.94e-6,"MEAN_MOTION_DDOT":0},{"OBJECT_NAME":"UNKNOWN","OBJECT_ID":"","EPOCH":"2026-03-02T21:02:57.564960","MEAN_MOTION":1.02662006,"ECCENTRICITY":0.0224494,"INCLINATION":5.6032,"RA_OF_ASC_NODE":296.9861,"ARG_OF_PERICENTER":275.7624,"MEAN_ANOMALY":284.5822,"EPHEMERIS_TYPE":0,"CLASSIFICATION_TYPE":"U","NORAD_CAT_ID":83934,"ELEMENT_SET_NO":999,"REV_AT_EPOCH":4610,"BSTAR":0,"MEAN_MOTION_DOT":-6.3e-7,"MEAN_MOTION_DDOT":0},{"OBJECT_NAME":"UNKNOWN","OBJECT_ID":"","EPOCH":"2026-03-03T13:32:48.372864","MEAN_MOTION":2.16232293,"ECCENTRICITY":0.6164362,"INCLINATION":22.3801,"RA_OF_ASC_NODE":160.9968,"ARG_OF_PERICENTER":89.0442,"MEAN_ANOMALY":336.2178,"EPHEMERIS_TYPE":0,"CLASSIFICATION_TYPE":"U","NORAD_CAT_ID":84006,"ELEMENT_SET_NO":999,"REV_AT_EPOCH":8597,"BSTAR":0,"MEAN_MOTION_DOT":5.0e-8,"MEAN_MOTION_DDOT":0}]
